{
  "type": "FeatureCollection",
  "features": [
    {
      "type": "Feature",
      "properties": {
        "norad_id": 31516,
        "name": "FENGYUN 1C DEB",
        "group": "fengyun-1c-debris",
        "lat": 72.5457585615095,
        "lon": -51.754696570141945,
        "alt_km": 887.0557206957565,
        "timestamp": "2025-12-08T17:43:05.214198+00:00",
        "meta_object_name": "FENGYUN 1C DEB",
        "meta_object_id": "1999-025BXF",
        "meta_epoch": "2025-12-08T04:18:21.439584",
        "meta_mean_motion": 14.25392155,
        "meta_eccentricity": 0.01482763,
        "meta_inclination": 98.8322,
        "meta_ra_of_asc_node": 98.0453,
        "meta_arg_of_pericenter": 251.8218,
        "meta_mean_anomaly": 228.2216,
        "meta_ephemeris_type": 0,
        "meta_classification_type": "U",
        "meta_norad_cat_id": 31516,
        "meta_element_set_no": 999,
        "meta_rev_at_epoch": 96427,
        "meta_bstar": 0.00072046233,
        "meta_mean_motion_dot": 1.859e-05,
        "meta_mean_motion_ddot": 0,
        "tle_line1": "1 31516U 99025BXF 25342.17941481  .00001859  00000+0  72046-3 0  9996",
        "tle_line2": "2 31516  98.8322  98.0453 0148276 251.8218 228.2216 14.25392155964272"
      },
      "geometry": {
        "type": "Point",
        "coordinates": [
          -51.754696570141945,
          72.5457585615095
        ]
      }
    },
    {
      "type": "Feature",
      "properties": {
        "norad_id": 31519,
        "name": "FENGYUN 1C DEB",
        "group": "fengyun-1c-debris",
        "lat": -72.37682556213262,
        "lon": 131.04077062734956,
        "alt_km": 783.9955717429839,
        "timestamp": "2025-12-08T17:43:05.214208+00:00",
        "meta_object_name": "FENGYUN 1C DEB",
        "meta_object_id": "1999-025BXJ",
        "meta_epoch": "2025-12-07T05:05:40.331040",
        "meta_mean_motion": 14.23381641,
        "meta_eccentricity": 0.00517229,
        "meta_inclination": 98.5731,
        "meta_ra_of_asc_node": 337.9057,
        "meta_arg_of_pericenter": 258.9557,
        "meta_mean_anomaly": 100.5802,
        "meta_ephemeris_type": 0,
        "meta_classification_type": "U",
        "meta_norad_cat_id": 31519,
        "meta_element_set_no": 999,
        "meta_rev_at_epoch": 64686,
        "meta_bstar": 0.00080132914,
        "meta_mean_motion_dot": 1.8e-05,
        "meta_mean_motion_ddot": 0,
        "tle_line1": "1 31519U 99025BXJ 25341.21227235  .00001800  00000+0  80133-3 0  9999",
        "tle_line2": "2 31519  98.5731 337.9057 0051722 258.9557 100.5802 14.23381641646865"
      },
      "geometry": {
        "type": "Point",
        "coordinates": [
          131.04077062734956,
          -72.37682556213262
        ]
      }
    },
    {
      "type": "Feature",
      "properties": {
        "norad_id": 31522,
        "name": "FENGYUN 1C DEB",
        "group": "fengyun-1c-debris",
        "lat": -67.5762990988336,
        "lon": 159.31160352229537,
        "alt_km": 862.317250154546,
        "timestamp": "2025-12-08T17:43:05.214218+00:00",
        "meta_object_name": "FENGYUN 1C DEB",
        "meta_object_id": "1999-025BXM",
        "meta_epoch": "2025-12-07T08:02:15.887040",
        "meta_mean_motion": 14.03985195,
        "meta_eccentricity": 0.00431068,
        "meta_inclination": 98.7082,
        "meta_ra_of_asc_node": 359.7695,
        "meta_arg_of_pericenter": 215.7743,
        "meta_mean_anomaly": 144.0536,
        "meta_ephemeris_type": 0,
        "meta_classification_type": "U",
        "meta_norad_cat_id": 31522,
        "meta_element_set_no": 999,
        "meta_rev_at_epoch": 94920,
        "meta_bstar": 0.0010143064,
        "meta_mean_motion_dot": 1.574e-05,
        "meta_mean_motion_ddot": 0,
        "tle_line1": "1 31522U 99025BXM 25341.33490610  .00001574  00000+0  10143-2 0  9996",
        "tle_line2": "2 31522  98.7082 359.7695 0043106 215.7743 144.0536 14.03985195949208"
      },
      "geometry": {
        "type": "Point",
        "coordinates": [
          159.31160352229537,
          -67.5762990988336
        ]
      }
    },
    {
      "type": "Feature",
      "properties": {
        "norad_id": 31523,
        "name": "FENGYUN 1C DEB",
        "group": "fengyun-1c-debris",
        "lat": -47.63911592238038,
        "lon": 40.09785716603027,
        "alt_km": 880.8839329527864,
        "timestamp": "2025-12-08T17:43:05.214229+00:00",
        "meta_object_name": "FENGYUN 1C DEB",
        "meta_object_id": "1999-025BXN",
        "meta_epoch": "2025-12-07T23:49:28.156800",
        "meta_mean_motion": 14.13859287,
        "meta_eccentricity": 0.00393054,
        "meta_inclination": 98.7579,
        "meta_ra_of_asc_node": 29.6349,
        "meta_arg_of_pericenter": 123.2574,
        "meta_mean_anomaly": 355.7846,
        "meta_ephemeris_type": 0,
        "meta_classification_type": "U",
        "meta_norad_cat_id": 31523,
        "meta_element_set_no": 999,
        "meta_rev_at_epoch": 95940,
        "meta_bstar": 4.1641581e-05,
        "meta_mean_motion_dot": 3.6e-07,
        "meta_mean_motion_ddot": 0,
        "tle_line1": "1 31523U 99025BXN 25341.99268700  .00000036  00000+0  41642-4 0  9994",
        "tle_line2": "2 31523  98.7579  29.6349 0039305 123.2574 355.7846 14.13859287959401"
      },
      "geometry": {
        "type": "Point",
        "coordinates": [
          40.09785716603027,
          -47.63911592238038
        ]
      }
    },
    {
      "type": "Feature",
      "properties": {
        "norad_id": 31527,
        "name": "FENGYUN 1C DEB",
        "group": "fengyun-1c-debris",
        "lat": -60.04910796231697,
        "lon": -46.88264889872563,
        "alt_km": 1043.563804925573,
        "timestamp": "2025-12-08T17:43:05.214239+00:00",
        "meta_object_name": "FENGYUN 1C DEB",
        "meta_object_id": "1999-025BXS",
        "meta_epoch": "2025-12-07T16:52:20.794080",
        "meta_mean_motion": 13.23396066,
        "meta_eccentricity": 0.04500434,
        "meta_inclination": 98.893,
        "meta_ra_of_asc_node": 147.9974,
        "meta_arg_of_pericenter": 312.678,
        "meta_mean_anomaly": 43.7239,
        "meta_ephemeris_type": 0,
        "meta_classification_type": "U",
        "meta_norad_cat_id": 31527,
        "meta_element_set_no": 999,
        "meta_rev_at_epoch": 90123,
        "meta_bstar": 0.00087176212,
        "meta_mean_motion_dot": 5.94e-06,
        "meta_mean_motion_ddot": 0,
        "tle_line1": "1 31527U 99025BXS 25341.70301845  .00000594  00000+0  87176-3 0  9995",
        "tle_line2": "2 31527  98.8930 147.9974 0450043 312.6780  43.7239 13.23396066901233"
      },
      "geometry": {
        "type": "Point",
        "coordinates": [
          -46.88264889872563,
          -60.04910796231697
        ]
      }
    },
    {
      "type": "Feature",
      "properties": {
        "norad_id": 31531,
        "name": "FENGYUN 1C DEB",
        "group": "fengyun-1c-debris",
        "lat": -18.727645428213332,
        "lon": 30.48446677047037,
        "alt_km": 688.9579483393545,
        "timestamp": "2025-12-08T17:43:05.214250+00:00",
        "meta_object_name": "FENGYUN 1C DEB",
        "meta_object_id": "1999-025BXW",
        "meta_epoch": "2025-12-03T20:42:43.358112",
        "meta_mean_motion": 14.3554776,
        "meta_eccentricity": 0.0244077,
        "meta_inclination": 98.3841,
        "meta_ra_of_asc_node": 22.8746,
        "meta_arg_of_pericenter": 295.232,
        "meta_mean_anomaly": 62.3747,
        "meta_ephemeris_type": 0,
        "meta_classification_type": "U",
        "meta_norad_cat_id": 31531,
        "meta_element_set_no": 999,
        "meta_rev_at_epoch": 63807,
        "meta_bstar": 0.0015833,
        "meta_mean_motion_dot": 6.351e-05,
        "meta_mean_motion_ddot": 0,
        "tle_line1": "1 31531U 99025BXW 25337.86300183  .00006351  00000+0  15833-2 0  9993",
        "tle_line2": "2 31531  98.3841  22.8746 0244077 295.2320  62.3747 14.35547760638079"
      },
      "geometry": {
        "type": "Point",
        "coordinates": [
          30.48446677047037,
          -18.727645428213332
        ]
      }
    },
    {
      "type": "Feature",
      "properties": {
        "norad_id": 31533,
        "name": "FENGYUN 1C DEB",
        "group": "fengyun-1c-debris",
        "lat": -75.53021208783895,
        "lon": 17.092947740497504,
        "alt_km": 816.9273718972563,
        "timestamp": "2025-12-08T17:43:05.214261+00:00",
        "meta_object_name": "FENGYUN 1C DEB",
        "meta_object_id": "1999-025BXY",
        "meta_epoch": "2025-12-06T22:27:19.947456",
        "meta_mean_motion": 14.27609328,
        "meta_eccentricity": 0.00659333,
        "meta_inclination": 98.9608,
        "meta_ra_of_asc_node": 232.9388,
        "meta_arg_of_pericenter": 6.2581,
        "meta_mean_anomaly": 353.9407,
        "meta_ephemeris_type": 0,
        "meta_classification_type": "U",
        "meta_norad_cat_id": 31533,
        "meta_element_set_no": 999,
        "meta_rev_at_epoch": 66040,
        "meta_bstar": 0.00070582767,
        "meta_mean_motion_dot": 1.732e-05,
        "meta_mean_motion_ddot": 0,
        "tle_line1": "1 31533U 99025BXY 25340.93564754  .00001732  00000+0  70583-3 0  9995",
        "tle_line2": "2 31533  98.9608 232.9388 0065933   6.2581 353.9407 14.27609328660409"
      },
      "geometry": {
        "type": "Point",
        "coordinates": [
          17.092947740497504,
          -75.53021208783895
        ]
      }
    }
  ]
}